STARLINK-2231           
1 48577U 21041AA  26068.44748311  .00003735  00000+0  13810-3 0  9996
2 48577  53.1594 128.0140 0001251  77.7398 282.3743 15.30217025265239
EXO-0                   
1 59175U 23174DK  26068.71046781  .00011582  00000+0  36716-3 0  9992
2 59175  97.3864 148.9039 0009878 157.1125 203.0559 15.32821991129797
